COSMOS 2550             
1 48865U 21056A   25311.70958659 -.00000148  00000+0  13417-5 0  9990
2 48865  67.1420  49.9474 0008374 269.6129  90.4066 15.33832179244756
CZ-2C R/B               
1 52794U 22058K   25312.45064317  .00032754  00000+0  63262-3 0  9999
2 52794  50.1911 218.1057 0049416  55.8409 304.7230 15.46109211191320
GSLV R/B                
1 54149U 22138AN  25312.20660129  .00004641  00000+0  41164-3 0  9991
2 54149  87.3855 207.0306 0019513 229.0419 130.9124 14.95846671165761
XRISM                   
1 57800U 23137A   25312.39680122  .00008313  00000+0  49583-3 0  9996
2 57800  31.0034 347.1931 0008202 257.7990 102.1729 15.09800453119437
ACS3                    
1 59588U 24077B   25312.49501389  .00020946  00000+0  18888-1 0  9991
2 59588  97.3199 275.6930 0047383  28.8276 331.5487 13.83299388 77408
