CCSDS_OMM_VERS = 2.0
CREATION_DATE  = 
ORIGINATOR     = 

OBJECT_NAME    = COSMOS 2550
OBJECT_ID      = 2021-056A
CENTER_NAME    = EARTH
REF_FRAME      = TEME
TIME_SYSTEM    = UTC
MEAN_ELEMENT_THEORY = SGP/SGP4

EPOCH          = 2025-11-07T17:01:48.281376
MEAN_MOTION    = 15.33832179
ECCENTRICITY   = .00083741
INCLINATION    = 67.1420
RA_OF_ASC_NODE = 49.9474
ARG_OF_PERICENTER = 269.6129
MEAN_ANOMALY   = 90.4066

EPHEMERIS_TYPE = 0
CLASSIFICATION_TYPE = U
NORAD_CAT_ID   = 48865
ELEMENT_SET_NO = 999
REV_AT_EPOCH   = 24475
BSTAR          = .1341734E-5
MEAN_MOTION_DOT = -.148E-5
MEAN_MOTION_DDOT = 0

CCSDS_OMM_VERS = 2.0
CREATION_DATE  = 
ORIGINATOR     = 

OBJECT_NAME    = CZ-2C R/B
OBJECT_ID      = 2022-058K
CENTER_NAME    = EARTH
REF_FRAME      = TEME
TIME_SYSTEM    = UTC
MEAN_ELEMENT_THEORY = SGP/SGP4

EPOCH          = 2025-11-08T10:48:55.569888
MEAN_MOTION    = 15.46109211
ECCENTRICITY   = .0049416
INCLINATION    = 50.1911
RA_OF_ASC_NODE = 218.1057
ARG_OF_PERICENTER = 55.8409
MEAN_ANOMALY   = 304.7230

EPHEMERIS_TYPE = 0
CLASSIFICATION_TYPE = U
NORAD_CAT_ID   = 52794
ELEMENT_SET_NO = 999
REV_AT_EPOCH   = 19132
BSTAR          = .63262E-3
MEAN_MOTION_DOT = .32754E-3
MEAN_MOTION_DDOT = 0

CCSDS_OMM_VERS = 2.0
CREATION_DATE  = 
ORIGINATOR     = 

OBJECT_NAME    = GSLV R/B
OBJECT_ID      = 2022-138AN
CENTER_NAME    = EARTH
REF_FRAME      = TEME
TIME_SYSTEM    = UTC
MEAN_ELEMENT_THEORY = SGP/SGP4

EPOCH          = 2025-11-08T04:57:30.351456
MEAN_MOTION    = 14.95846671
ECCENTRICITY   = .0019513
INCLINATION    = 87.3855
RA_OF_ASC_NODE = 207.0306
ARG_OF_PERICENTER = 229.0419
MEAN_ANOMALY   = 130.9124

EPHEMERIS_TYPE = 0
CLASSIFICATION_TYPE = U
NORAD_CAT_ID   = 54149
ELEMENT_SET_NO = 999
REV_AT_EPOCH   = 16576
BSTAR          = .41164082E-3
MEAN_MOTION_DOT = .4641E-4
MEAN_MOTION_DDOT = 0

CCSDS_OMM_VERS = 2.0
CREATION_DATE  = 
ORIGINATOR     = 

OBJECT_NAME    = XRISM
OBJECT_ID      = 2023-137A
CENTER_NAME    = EARTH
REF_FRAME      = TEME
TIME_SYSTEM    = UTC
MEAN_ELEMENT_THEORY = SGP/SGP4

EPOCH          = 2025-11-08T09:31:23.625408
MEAN_MOTION    = 15.09800453
ECCENTRICITY   = .0008202
INCLINATION    = 31.0034
RA_OF_ASC_NODE = 347.1931
ARG_OF_PERICENTER = 257.7990
MEAN_ANOMALY   = 102.1729

EPHEMERIS_TYPE = 0
CLASSIFICATION_TYPE = U
NORAD_CAT_ID   = 57800
ELEMENT_SET_NO = 999
REV_AT_EPOCH   = 11943
BSTAR          = .49583E-3
MEAN_MOTION_DOT = .8313E-4
MEAN_MOTION_DDOT = 0

CCSDS_OMM_VERS = 2.0
CREATION_DATE  = 
ORIGINATOR     = 

OBJECT_NAME    = ACS3
OBJECT_ID      = 2024-077B
CENTER_NAME    = EARTH
REF_FRAME      = TEME
TIME_SYSTEM    = UTC
MEAN_ELEMENT_THEORY = SGP/SGP4

EPOCH          = 2025-11-08T11:52:49.200096
MEAN_MOTION    = 13.83299388
ECCENTRICITY   = .0047383
INCLINATION    = 97.3199
RA_OF_ASC_NODE = 275.6930
ARG_OF_PERICENTER = 28.8276
MEAN_ANOMALY   = 331.5487

EPHEMERIS_TYPE = 0
CLASSIFICATION_TYPE = U
NORAD_CAT_ID   = 59588
ELEMENT_SET_NO = 999
REV_AT_EPOCH   = 7740
BSTAR          = .18888E-1
MEAN_MOTION_DOT = .20946E-3
MEAN_MOTION_DDOT = 0

